IRIDIUM 112             
1 41925U 17003J   24269.68196678  .00000614  00000+0  21210-3 0  9995
2 41925  86.4025 351.3773 0002041  86.7097 273.4332 14.34219080403048
IRIDIUM 120             
1 42805U 17039C   24269.85221162  .00000209  00000+0  67438-4 0  9991
2 42805  86.3978 224.9659 0002357  87.2392 272.9073 14.34217681380971
IRIDIUM 117             
1 42808U 17039F   24269.95077264 -.00000016  00000+0 -12715-4 0  9993
2 42808  86.3916 256.5126 0001981  88.7702 271.3721 14.34217806379788
IRIDIUM 118             
1 42807U 17039E   24269.93174626  .00000210  00000+0  67953-4 0  9998
2 42807  86.3918 256.5569 0002423  89.0914 271.0560 14.34218914379757
IRIDIUM 111             
1 41926U 17003K   24269.66928260  .00000617  00000+0  21310-3 0  9998
2 41926  86.4027 351.4392 0001911  93.1402 267.0013 14.34220901403023
